line1,line2,validFromUtcTime
1 00000U 00000E   26001.00000000  .00000000  00000-0  27772-4 0    01,2 00000  89.0018   0.3311 0010120 269.0827 211.0641 13.55290346    07,2026-01-01T00:00:00Z
1 00000U 00000E   26002.00000000  .00000000  00000-0  27772-4 0    02,2 00000  89.0018   0.2296 0010120 266.1717  50.1078 13.55290384    02,2026-01-02T00:00:00Z
